SES-2                   
1 37809U 11049A   26116.99489096 -.00000207  00000+0  00000+0 0  9990
2 37809   0.0613  76.9183 0002797 316.6848  92.5478  1.00272518 53452
QUETZSAT 1              
1 37826U 11054A   26117.21885740 -.00000252  00000+0  00000+0 0  9997
2 37826   0.0525  65.1051 0002584 344.8224 167.0703  1.00272010 49363
SES-4                   
1 38087U 12007A   26117.23378113 -.00000178  00000+0  00000+0 0  9996
2 38087   0.0219  39.3407 0002623  16.7401 221.3232  1.00272317 51710
SES-5                   
1 38652U 12036A   26117.22267126  .00000024  00000+0  00000+0 0  9995
2 38652   0.0599 300.3439 0001946  94.9629 265.0472  1.00271777 43948
ASTRA 2F                
1 38778U 12051A   26117.21155843  .00000140  00000+0  00000+0 0  9991
2 38778   0.0348 249.3680 0000426  15.6991  54.4973  1.00272118 40621
SES-6                   
1 39172U 13026A   26117.05638810 -.00000272  00000+0  00000+0 0  9992
2 39172   0.0355 292.6992 0002132 118.5413 143.6044  1.00269969 47215
O3B FM5                 
1 39188U 13031A   26116.86808744 -.00000027  00000+0  00000+0 0  9996
2 39188   0.1023 359.9005 0003139  24.8501 335.2631  5.00116477234478
O3B FM4                 
1 39189U 13031B   26116.98738203 -.00000027  00000+0  00000+0 0  9992
2 39189   0.0493 345.9938 0005148  49.1181 324.9207  5.00115203234486
O3B FM2                 
1 39190U 13031C   26116.85308440 -.00000027  00000+0  00000+0 0  9996
2 39190   0.0471 339.1380 0002788  54.4782 326.4000  5.00115983234543
O3B PFM                 
1 39191U 13031D   26113.46906767 -.00000026  00000+0  00000+0 0  9996
2 39191   0.0700 358.7224 0004841  42.5713 318.7416  5.00115912233936
ASTRA 2E                
1 39285U 13056A   26117.21155843  .00000140  00000+0  00000+0 0  9991
2 39285   0.0622   9.1023 0002307  28.6120 282.1699  1.00272796 45904
SES-8                   
1 39460U 13071A   26117.20233531 -.00000280  00000+0  00000+0 0  9999
2 39460   0.0209 258.5380 0002464 155.5509 328.9523  1.00271860 43916
ASTRA 5B                
1 39617U 14011B   26117.21155843  .00000127  00000+0  00000+0 0  9997
2 39617   0.0670 308.1483 0002671  66.3516 300.3554  1.00269971 44150
O3B FM3                 
1 40079U 14038A   26116.93385093 -.00000027  00000+0  00000+0 0  9990
2 40079   0.0514 355.3202 0001418 106.1748 258.5195  5.00115621210484
O3B FM7                 
1 40080U 14038B   26116.08038862 -.00000027  00000+0  00000+0 0  9997
2 40080   0.0542 347.5637 0004216  28.9904 343.4580  5.00115631215271
O3B FM6                 
1 40081U 14038C   26116.70705411 -.00000027  00000+0  00000+0 0  9998
2 40081   0.0520 352.0546 0002637  42.0805 325.8803  5.00115711215259
O3B FM8                 
1 40082U 14038D   26116.96023134 -.00000027  00000+0  00000+0 0  9992
2 40082   0.0523 350.9831 0002700  47.3376 321.6971  5.00116018215384
