[{"OBJECT_NAME":"SES-2","OBJECT_ID":"2011-049A","EPOCH":"2026-04-26T23:52:38.578944","MEAN_MOTION":1.00272518,"ECCENTRICITY":0.0002797,"INCLINATION":0.0613,"RA_OF_ASC_NODE":76.9183,"ARG_OF_PERICENTER":316.6848,"MEAN_ANOMALY":92.5478,"EPHEMERIS_TYPE":0,"CLASSIFICATION_TYPE":"U","NORAD_CAT_ID":37809,"ELEMENT_SET_NO":999,"REV_AT_EPOCH":5345,"BSTAR":0,"MEAN_MOTION_DOT":-2.07e-6,"MEAN_MOTION_DDOT":0},{"OBJECT_NAME":"QUETZSAT 1","OBJECT_ID":"2011-054A","EPOCH":"2026-04-27T05:15:09.279360","MEAN_MOTION":1.0027201,"ECCENTRICITY":0.00025843,"INCLINATION":0.0525,"RA_OF_ASC_NODE":65.1051,"ARG_OF_PERICENTER":344.8224,"MEAN_ANOMALY":167.0703,"EPHEMERIS_TYPE":0,"CLASSIFICATION_TYPE":"U","NORAD_CAT_ID":37826,"ELEMENT_SET_NO":999,"REV_AT_EPOCH":4936,"BSTAR":0,"MEAN_MOTION_DOT":-2.52e-6,"MEAN_MOTION_DDOT":0},{"OBJECT_NAME":"SES-4","OBJECT_ID":"2012-007A","EPOCH":"2026-04-27T05:36:38.689632","MEAN_MOTION":1.00272317,"ECCENTRICITY":0.00026239,"INCLINATION":0.0219,"RA_OF_ASC_NODE":39.3407,"ARG_OF_PERICENTER":16.7401,"MEAN_ANOMALY":221.3232,"EPHEMERIS_TYPE":0,"CLASSIFICATION_TYPE":"U","NORAD_CAT_ID":38087,"ELEMENT_SET_NO":999,"REV_AT_EPOCH":5171,"BSTAR":0,"MEAN_MOTION_DOT":-1.78e-6,"MEAN_MOTION_DDOT":0},{"OBJECT_NAME":"SES-5","OBJECT_ID":"2012-036A","EPOCH":"2026-04-27T05:20:38.796864","MEAN_MOTION":1.00271777,"ECCENTRICITY":0.00019462,"INCLINATION":0.0599,"RA_OF_ASC_NODE":300.3439,"ARG_OF_PERICENTER":94.9629,"MEAN_ANOMALY":265.0472,"EPHEMERIS_TYPE":0,"CLASSIFICATION_TYPE":"U","NORAD_CAT_ID":38652,"ELEMENT_SET_NO":999,"REV_AT_EPOCH":4394,"BSTAR":0,"MEAN_MOTION_DOT":2.4e-7,"MEAN_MOTION_DDOT":0},{"OBJECT_NAME":"ASTRA 2F","OBJECT_ID":"2012-051A","EPOCH":"2026-04-27T05:04:38.648352","MEAN_MOTION":1.00272118,"ECCENTRICITY":4.269e-5,"INCLINATION":0.0348,"RA_OF_ASC_NODE":249.368,"ARG_OF_PERICENTER":15.6991,"MEAN_ANOMALY":54.4973,"EPHEMERIS_TYPE":0,"CLASSIFICATION_TYPE":"U","NORAD_CAT_ID":38778,"ELEMENT_SET_NO":999,"REV_AT_EPOCH":4062,"BSTAR":0,"MEAN_MOTION_DOT":1.4e-6,"MEAN_MOTION_DDOT":0},{"OBJECT_NAME":"SES-6","OBJECT_ID":"2013-026A","EPOCH":"2026-04-27T01:21:11.931840","MEAN_MOTION":1.00269969,"ECCENTRICITY":0.00021323,"INCLINATION":0.0355,"RA_OF_ASC_NODE":292.6992,"ARG_OF_PERICENTER":118.5413,"MEAN_ANOMALY":143.6044,"EPHEMERIS_TYPE":0,"CLASSIFICATION_TYPE":"U","NORAD_CAT_ID":39172,"ELEMENT_SET_NO":999,"REV_AT_EPOCH":4721,"BSTAR":0,"MEAN_MOTION_DOT":-2.72e-6,"MEAN_MOTION_DDOT":0},{"OBJECT_NAME":"O3B FM5","OBJECT_ID":"2013-031A","EPOCH":"2026-04-26T20:50:02.754816","MEAN_MOTION":5.00116477,"ECCENTRICITY":0.00031393,"INCLINATION":0.1023,"RA_OF_ASC_NODE":359.9005,"ARG_OF_PERICENTER":24.8501,"MEAN_ANOMALY":335.2631,"EPHEMERIS_TYPE":0,"CLASSIFICATION_TYPE":"U","NORAD_CAT_ID":39188,"ELEMENT_SET_NO":999,"REV_AT_EPOCH":23447,"BSTAR":0,"MEAN_MOTION_DOT":-2.7e-7,"MEAN_MOTION_DDOT":0},{"OBJECT_NAME":"O3B FM4","OBJECT_ID":"2013-031B","EPOCH":"2026-04-26T23:41:49.807392","MEAN_MOTION":5.00115203,"ECCENTRICITY":0.00051488,"INCLINATION":0.0493,"RA_OF_ASC_NODE":345.9938,"ARG_OF_PERICENTER":49.1181,"MEAN_ANOMALY":324.9207,"EPHEMERIS_TYPE":0,"CLASSIFICATION_TYPE":"U","NORAD_CAT_ID":39189,"ELEMENT_SET_NO":999,"REV_AT_EPOCH":23448,"BSTAR":0,"MEAN_MOTION_DOT":-2.7e-7,"MEAN_MOTION_DDOT":0},{"OBJECT_NAME":"O3B FM2","OBJECT_ID":"2013-031C","EPOCH":"2026-04-26T20:28:26.492160","MEAN_MOTION":5.00115983,"ECCENTRICITY":0.0002788,"INCLINATION":0.0471,"RA_OF_ASC_NODE":339.138,"ARG_OF_PERICENTER":54.4782,"MEAN_ANOMALY":326.4,"EPHEMERIS_TYPE":0,"CLASSIFICATION_TYPE":"U","NORAD_CAT_ID":39190,"ELEMENT_SET_NO":999,"REV_AT_EPOCH":23454,"BSTAR":0,"MEAN_MOTION_DOT":-2.7e-7,"MEAN_MOTION_DDOT":0},{"OBJECT_NAME":"O3B PFM","OBJECT_ID":"2013-031D","EPOCH":"2026-04-23T11:15:27.446688","MEAN_MOTION":5.00115912,"ECCENTRICITY":0.0004841,"INCLINATION":0.07,"RA_OF_ASC_NODE":358.7224,"ARG_OF_PERICENTER":42.5713,"MEAN_ANOMALY":318.7416,"EPHEMERIS_TYPE":0,"CLASSIFICATION_TYPE":"U","NORAD_CAT_ID":39191,"ELEMENT_SET_NO":999,"REV_AT_EPOCH":23393,"BSTAR":0,"MEAN_MOTION_DOT":-2.6e-7,"MEAN_MOTION_DDOT":0},{"OBJECT_NAME":"ASTRA 2E","OBJECT_ID":"2013-056A","EPOCH":"2026-04-27T05:04:38.648352","MEAN_MOTION":1.00272796,"ECCENTRICITY":0.00023075,"INCLINATION":0.0622,"RA_OF_ASC_NODE":9.1023,"ARG_OF_PERICENTER":28.612,"MEAN_ANOMALY":282.1699,"EPHEMERIS_TYPE":0,"CLASSIFICATION_TYPE":"U","NORAD_CAT_ID":39285,"ELEMENT_SET_NO":999,"REV_AT_EPOCH":4590,"BSTAR":0,"MEAN_MOTION_DOT":1.4e-6,"MEAN_MOTION_DDOT":0},{"OBJECT_NAME":"SES-8","OBJECT_ID":"2013-071A","EPOCH":"2026-04-27T04:51:21.770784","MEAN_MOTION":1.0027186,"ECCENTRICITY":0.00024646,"INCLINATION":0.0209,"RA_OF_ASC_NODE":258.538,"ARG_OF_PERICENTER":155.5509,"MEAN_ANOMALY":328.9523,"EPHEMERIS_TYPE":0,"CLASSIFICATION_TYPE":"U","NORAD_CAT_ID":39460,"ELEMENT_SET_NO":999,"REV_AT_EPOCH":4391,"BSTAR":0,"MEAN_MOTION_DOT":-2.8e-6,"MEAN_MOTION_DDOT":0},{"OBJECT_NAME":"ASTRA 5B","OBJECT_ID":"2014-011B","EPOCH":"2026-04-27T05:04:38.648352","MEAN_MOTION":1.00269971,"ECCENTRICITY":0.00026716,"INCLINATION":0.067,"RA_OF_ASC_NODE":308.1483,"ARG_OF_PERICENTER":66.3516,"MEAN_ANOMALY":300.3554,"EPHEMERIS_TYPE":0,"CLASSIFICATION_TYPE":"U","NORAD_CAT_ID":39617,"ELEMENT_SET_NO":999,"REV_AT_EPOCH":4415,"BSTAR":0,"MEAN_MOTION_DOT":1.27e-6,"MEAN_MOTION_DDOT":0},{"OBJECT_NAME":"O3B FM3","OBJECT_ID":"2014-038A","EPOCH":"2026-04-26T22:24:44.720352","MEAN_MOTION":5.00115621,"ECCENTRICITY":0.00014186,"INCLINATION":0.0514,"RA_OF_ASC_NODE":355.3202,"ARG_OF_PERICENTER":106.1748,"MEAN_ANOMALY":258.5195,"EPHEMERIS_TYPE":0,"CLASSIFICATION_TYPE":"U","NORAD_CAT_ID":40079,"ELEMENT_SET_NO":999,"REV_AT_EPOCH":21048,"BSTAR":0,"MEAN_MOTION_DOT":-2.7e-7,"MEAN_MOTION_DDOT":0},{"OBJECT_NAME":"O3B FM7","OBJECT_ID":"2014-038B","EPOCH":"2026-04-26T01:55:45.576768","MEAN_MOTION":5.00115631,"ECCENTRICITY":0.0004216,"INCLINATION":0.0542,"RA_OF_ASC_NODE":347.5637,"ARG_OF_PERICENTER":28.9904,"MEAN_ANOMALY":343.458,"EPHEMERIS_TYPE":0,"CLASSIFICATION_TYPE":"U","NORAD_CAT_ID":40080,"ELEMENT_SET_NO":999,"REV_AT_EPOCH":21527,"BSTAR":0,"MEAN_MOTION_DOT":-2.7e-7,"MEAN_MOTION_DDOT":0},{"OBJECT_NAME":"O3B FM6","OBJECT_ID":"2014-038C","EPOCH":"2026-04-26T16:58:09.475104","MEAN_MOTION":5.00115711,"ECCENTRICITY":0.0002637,"INCLINATION":0.052,"RA_OF_ASC_NODE":352.0546,"ARG_OF_PERICENTER":42.0805,"MEAN_ANOMALY":325.8803,"EPHEMERIS_TYPE":0,"CLASSIFICATION_TYPE":"U","NORAD_CAT_ID":40081,"ELEMENT_SET_NO":999,"REV_AT_EPOCH":21525,"BSTAR":0,"MEAN_MOTION_DOT":-2.7e-7,"MEAN_MOTION_DDOT":0},{"OBJECT_NAME":"O3B FM8","OBJECT_ID":"2014-038D","EPOCH":"2026-04-26T23:02:43.987776","MEAN_MOTION":5.00116018,"ECCENTRICITY":0.00027,"INCLINATION":0.0523,"RA_OF_ASC_NODE":350.9831,"ARG_OF_PERICENTER":47.3376,"MEAN_ANOMALY":321.6971,"EPHEMERIS_TYPE":0,"CLASSIFICATION_TYPE":"U","NORAD_CAT_ID":40082,"ELEMENT_SET_NO":999,"REV_AT_EPOCH":21538,"BSTAR":0,"MEAN_MOTION_DOT":-2.7e-7,"MEAN_MOTION_DDOT":0}]
